{"type": "FeatureCollection", "features": [ {"type": "Feature", "properties": {"norad_id": 47068, "name": "COSMOS 2251 DEB", "group": "cosmos-2251-debris", "lat": -1.7948866183516192, "lon": 24.774089446114505, "alt_km": 722.5211385180128, "timestamp": "2025-12-12T07:43:20.914547+00:00", "meta": {"OBJECT_NAME": "COSMOS 2251 DEB", "OBJECT_ID": "1993-036BXY", "EPOCH": "2025-12-10T08:37:23.908800", "MEAN_MOTION": 14.53124588, "ECCENTRICITY": 0.00183871, "INCLINATION": 74.0237, "RA_OF_ASC_NODE": 207.9647, "ARG_OF_PERICENTER": 295.1149, "MEAN_ANOMALY": 64.8105, "EPHEMERIS_TYPE": 0, "CLASSIFICATION_TYPE": "U", "NORAD_CAT_ID": 47068, "ELEMENT_SET_NO": 999, "REV_AT_EPOCH": 61722, "BSTAR": 0.0012343436, "MEAN_MOTION_DOT": 5.094e-05, "MEAN_MOTION_DDOT": 0}, "tle": {"line1": "1 47068U 93036BXY 25344.35930450  .00005094  00000+0  12343-2 0  9995", "line2": "2 47068  74.0237 207.9647 0018387 295.1149  64.8105 14.53124588617226"}}, "geometry": {"type": "Point", "coordinates": [24.774089446114505, -1.7948866183516192]}}, {"type": "Feature", "properties": {"norad_id": 47073, "name": "COSMOS 2251 DEB", "group": "cosmos-2251-debris", "lat": 55.476210295368894, "lon": -132.9192792821511, "alt_km": 989.4166772773788, "timestamp": "2025-12-12T07:43:20.914558+00:00", "meta": {"OBJECT_NAME": "COSMOS 2251 DEB", "OBJECT_ID": "1993-036BYD", "EPOCH": "2025-12-10T22:57:37.610784", "MEAN_MOTION": 14.04716581, "ECCENTRICITY": 0.0162103, "INCLINATION": 74.0823, "RA_OF_ASC_NODE": 204.9451, "ARG_OF_PERICENTER": 243.6176, "MEAN_ANOMALY": 114.8243, "EPHEMERIS_TYPE": 0, "CLASSIFICATION_TYPE": "U", "NORAD_CAT_ID": 47073, "ELEMENT_SET_NO": 999, "REV_AT_EPOCH": 60336, "BSTAR": 0.00063847, "MEAN_MOTION_DOT": 1.125e-05, "MEAN_MOTION_DDOT": 0}, "tle": {"line1": "1 47073U 93036BYD 25344.95668531  .00001125  00000+0  63847-3 0  9992", "line2": "2 47073  74.0823 204.9451 0162103 243.6176 114.8243 14.04716581603362"}}, "geometry": {"type": "Point", "coordinates": [-132.9192792821511, 55.476210295368894]}}, {"type": "Feature", "properties": {"norad_id": 47074, "name": "COSMOS 2251 DEB", "group": "cosmos-2251-debris", "lat": 14.327055448715834, "lon": 125.3009453457978, "alt_km": 875.8374164644365, "timestamp": "2025-12-12T07:43:20.914568+00:00", "meta": {"OBJECT_NAME": "COSMOS 2251 DEB", "OBJECT_ID": "1993-036BYE", "EPOCH": "2025-12-08T16:49:34.505184", "MEAN_MOTION": 14.3557053, "ECCENTRICITY": 0.01448795, "INCLINATION": 74.0911, "RA_OF_ASC_NODE": 316.0985, "ARG_OF_PERICENTER": 343.8802, "MEAN_ANOMALY": 196.5757, "EPHEMERIS_TYPE": 0, "CLASSIFICATION_TYPE": "U", "NORAD_CAT_ID": 47074, "ELEMENT_SET_NO": 999, "REV_AT_EPOCH": 2624, "BSTAR": 0.0031554894, "MEAN_MOTION_DOT": 0.00010228, "MEAN_MOTION_DDOT": 0}, "tle": {"line1": "1 47074U 93036BYE 25342.70109381  .00010228  00000+0  31555-2 0  9991", "line2": "2 47074  74.0911 316.0985 0144879 343.8802 196.5757 14.35570530 26246"}}, "geometry": {"type": "Point", "coordinates": [125.3009453457978, 14.327055448715834]}}, {"type": "Feature", "properties": {"norad_id": 47116, "name": "COSMOS 2251 DEB", "group": "cosmos-2251-debris", "lat": -72.17349222074773, "lon": 178.57376641983538, "alt_km": 571.4585307421048, "timestamp": "2025-12-12T07:43:20.914580+00:00", "meta": {"OBJECT_NAME": "COSMOS 2251 DEB", "OBJECT_ID": "1993-036BYJ", "EPOCH": "2025-12-11T00:06:23.501088", "MEAN_MOTION": 14.98044349, "ECCENTRICITY": 0.00215318, "INCLINATION": 74.0231, "RA_OF_ASC_NODE": 244.2359, "ARG_OF_PERICENTER": 338.282, "MEAN_ANOMALY": 38.4094, "EPHEMERIS_TYPE": 0, "CLASSIFICATION_TYPE": "U", "NORAD_CAT_ID": 47116, "ELEMENT_SET_NO": 999, "REV_AT_EPOCH": 59485, "BSTAR": 0.0031113289, "MEAN_MOTION_DOT": 0.0003712, "MEAN_MOTION_DDOT": 0}, "tle": {"line1": "1 47116U 93036BYJ 25345.00443867  .00037120  00000+0  31113-2 0  9994", "line2": "2 47116  74.0231 244.2359 0021531 338.2820  38.4094 14.98044349594850"}}, "geometry": {"type": "Point", "coordinates": [178.57376641983538, -72.17349222074773]}}, {"type": "Feature", "properties": {"norad_id": 53093, "name": "COSMOS 2251 DEB", "group": "cosmos-2251-debris", "lat": -7.263324653851553, "lon": 124.32073251288281, "alt_km": 769.1603460936549, "timestamp": "2025-12-12T07:43:20.914590+00:00", "meta": {"OBJECT_NAME": "COSMOS 2251 DEB", "OBJECT_ID": "1993-036BYP", "EPOCH": "2025-12-11T22:31:50.552256", "MEAN_MOTION": 14.41873771, "ECCENTRICITY": 0.00191311, "INCLINATION": 74.0365, "RA_OF_ASC_NODE": 302.9395, "ARG_OF_PERICENTER": 20.2531, "MEAN_ANOMALY": 339.938, "EPHEMERIS_TYPE": 0, "CLASSIFICATION_TYPE": "U", "NORAD_CAT_ID": 53093, "ELEMENT_SET_NO": 999, "REV_AT_EPOCH": 17714, "BSTAR": 0.0014886996, "MEAN_MOTION_DOT": 4.859e-05, "MEAN_MOTION_DDOT": 0}, "tle": {"line1": "1 53093U 93036BYP 25345.93877954  .00004859  00000+0  14887-2 0  9997", "line2": "2 53093  74.0365 302.9395 0019131  20.2531 339.9380 14.41873771177144"}}, "geometry": {"type": "Point", "coordinates": [124.32073251288281, -7.263324653851553]}}]}